CCSDS_OMM_VERS = 2.0
CREATION_DATE  = 
ORIGINATOR     = 

OBJECT_NAME    = STARLINK-36390
OBJECT_ID      = 2026-035H
CENTER_NAME    = EARTH
REF_FRAME      = TEME
TIME_SYSTEM    = UTC
MEAN_ELEMENT_THEORY = SGP/SGP4

EPOCH          = 2026-03-19T06:48:05.860224
MEAN_MOTION    = 15.75281045
ECCENTRICITY   = .00009869
INCLINATION    = 97.2871
RA_OF_ASC_NODE = 11.1509
ARG_OF_PERICENTER = 102.4596
MEAN_ANOMALY   = 257.6780

EPHEMERIS_TYPE = 0
CLASSIFICATION_TYPE = U
NORAD_CAT_ID   = 67886
ELEMENT_SET_NO = 999
REV_AT_EPOCH   = 535
BSTAR          = .14929745E-2
MEAN_MOTION_DOT = .229549E-2
MEAN_MOTION_DDOT = 0

CCSDS_OMM_VERS = 2.0
CREATION_DATE  = 
ORIGINATOR     = 

OBJECT_NAME    = STARLINK-36368
OBJECT_ID      = 2026-035J
CENTER_NAME    = EARTH
REF_FRAME      = TEME
TIME_SYSTEM    = UTC
MEAN_ELEMENT_THEORY = SGP/SGP4

EPOCH          = 2026-03-19T06:24:50.616864
MEAN_MOTION    = 15.80931091
ECCENTRICITY   = .00003101
INCLINATION    = 97.2887
RA_OF_ASC_NODE = 11.1701
ARG_OF_PERICENTER = 338.9131
MEAN_ANOMALY   = 21.2124

EPHEMERIS_TYPE = 0
CLASSIFICATION_TYPE = U
NORAD_CAT_ID   = 67887
ELEMENT_SET_NO = 999
REV_AT_EPOCH   = 535
BSTAR          = .21178142E-2
MEAN_MOTION_DOT = .428388E-2
MEAN_MOTION_DDOT = 0

CCSDS_OMM_VERS = 2.0
CREATION_DATE  = 
ORIGINATOR     = 

OBJECT_NAME    = STARLINK-36801
OBJECT_ID      = 2026-035K
CENTER_NAME    = EARTH
REF_FRAME      = TEME
TIME_SYSTEM    = UTC
MEAN_ELEMENT_THEORY = SGP/SGP4

EPOCH          = 2026-03-19T06:23:46.237632
MEAN_MOTION    = 15.80862126
ECCENTRICITY   = .00018487
INCLINATION    = 97.2889
RA_OF_ASC_NODE = 11.1708
ARG_OF_PERICENTER = 91.3134
MEAN_ANOMALY   = 268.8346

EPHEMERIS_TYPE = 0
CLASSIFICATION_TYPE = U
NORAD_CAT_ID   = 67888
ELEMENT_SET_NO = 999
REV_AT_EPOCH   = 535
BSTAR          = .84841509E-3
MEAN_MOTION_DOT = .165849E-2
MEAN_MOTION_DDOT = 0

CCSDS_OMM_VERS = 2.0
CREATION_DATE  = 
ORIGINATOR     = 

OBJECT_NAME    = STARLINK-36372
OBJECT_ID      = 2026-035L
CENTER_NAME    = EARTH
REF_FRAME      = TEME
TIME_SYSTEM    = UTC
MEAN_ELEMENT_THEORY = SGP/SGP4

EPOCH          = 2026-03-19T06:00:02.000160
MEAN_MOTION    = 15.76086295
ECCENTRICITY   = .00019009
INCLINATION    = 97.2861
RA_OF_ASC_NODE = 11.1542
ARG_OF_PERICENTER = 98.3164
MEAN_ANOMALY   = 168.1463

EPHEMERIS_TYPE = 0
CLASSIFICATION_TYPE = U
NORAD_CAT_ID   = 67889
ELEMENT_SET_NO = 999
REV_AT_EPOCH   = 529
BSTAR          = -.84428911E-2
MEAN_MOTION_DOT = -.1166966E-1
MEAN_MOTION_DDOT = 0

CCSDS_OMM_VERS = 2.0
CREATION_DATE  = 
ORIGINATOR     = 

OBJECT_NAME    = STARLINK-36363
OBJECT_ID      = 2026-035M
CENTER_NAME    = EARTH
REF_FRAME      = TEME
TIME_SYSTEM    = UTC
MEAN_ELEMENT_THEORY = SGP/SGP4

EPOCH          = 2026-03-19T06:42:59.168736
MEAN_MOTION    = 15.75409395
ECCENTRICITY   = .00019484
INCLINATION    = 97.2880
RA_OF_ASC_NODE = 11.1555
ARG_OF_PERICENTER = 103.1699
MEAN_ANOMALY   = 256.9784

EPHEMERIS_TYPE = 0
CLASSIFICATION_TYPE = U
NORAD_CAT_ID   = 67890
ELEMENT_SET_NO = 999
REV_AT_EPOCH   = 535
BSTAR          = .23519837E-2
MEAN_MOTION_DOT = .3698E-2
MEAN_MOTION_DDOT = 0

CCSDS_OMM_VERS = 2.0
CREATION_DATE  = 
ORIGINATOR     = 

OBJECT_NAME    = STARLINK-36816
OBJECT_ID      = 2026-035N
CENTER_NAME    = EARTH
REF_FRAME      = TEME
TIME_SYSTEM    = UTC
MEAN_ELEMENT_THEORY = SGP/SGP4

EPOCH          = 2026-03-19T01:34:04.433376
MEAN_MOTION    = 15.80932893
ECCENTRICITY   = .00017134
INCLINATION    = 97.2906
RA_OF_ASC_NODE = 10.9815
ARG_OF_PERICENTER = 101.2508
MEAN_ANOMALY   = 258.8953

EPHEMERIS_TYPE = 0
CLASSIFICATION_TYPE = U
NORAD_CAT_ID   = 67891
ELEMENT_SET_NO = 999
REV_AT_EPOCH   = 532
BSTAR          = .21910939E-2
MEAN_MOTION_DOT = .444002E-2
MEAN_MOTION_DDOT = 0

CCSDS_OMM_VERS = 2.0
CREATION_DATE  = 
ORIGINATOR     = 

OBJECT_NAME    = STARLINK-36813
OBJECT_ID      = 2026-035P
CENTER_NAME    = EARTH
REF_FRAME      = TEME
TIME_SYSTEM    = UTC
MEAN_ELEMENT_THEORY = SGP/SGP4

EPOCH          = 2026-03-19T06:14:02.650560
MEAN_MOTION    = 15.81007485
ECCENTRICITY   = .00010122
INCLINATION    = 97.2889
RA_OF_ASC_NODE = 11.1742
ARG_OF_PERICENTER = 5.2381
MEAN_ANOMALY   = 354.8897

EPHEMERIS_TYPE = 0
CLASSIFICATION_TYPE = U
NORAD_CAT_ID   = 67892
ELEMENT_SET_NO = 999
REV_AT_EPOCH   = 535
BSTAR          = .23592003E-2
MEAN_MOTION_DOT = .481853E-2
MEAN_MOTION_DDOT = 0

CCSDS_OMM_VERS = 2.0
CREATION_DATE  = 
ORIGINATOR     = 

OBJECT_NAME    = STARLINK-36803
OBJECT_ID      = 2026-035Q
CENTER_NAME    = EARTH
REF_FRAME      = TEME
TIME_SYSTEM    = UTC
MEAN_ELEMENT_THEORY = SGP/SGP4

EPOCH          = 2026-03-19T06:20:31.238016
MEAN_MOTION    = 15.80881606
ECCENTRICITY   = .00007157
INCLINATION    = 97.2891
RA_OF_ASC_NODE = 11.1726
ARG_OF_PERICENTER = 88.5669
MEAN_ANOMALY   = 271.5681

EPHEMERIS_TYPE = 0
CLASSIFICATION_TYPE = U
NORAD_CAT_ID   = 67893
ELEMENT_SET_NO = 999
REV_AT_EPOCH   = 535
BSTAR          = .18262242E-2
MEAN_MOTION_DOT = .365857E-2
MEAN_MOTION_DDOT = 0

CCSDS_OMM_VERS = 2.0
CREATION_DATE  = 
ORIGINATOR     = 

OBJECT_NAME    = STARLINK-36846
OBJECT_ID      = 2026-035R
CENTER_NAME    = EARTH
REF_FRAME      = TEME
TIME_SYSTEM    = UTC
MEAN_ELEMENT_THEORY = SGP/SGP4

EPOCH          = 2026-03-19T06:45:32.527872
MEAN_MOTION    = 15.75316911
ECCENTRICITY   = .00011372
INCLINATION    = 97.2887
RA_OF_ASC_NODE = 11.1508
ARG_OF_PERICENTER = 72.6609
MEAN_ANOMALY   = 287.4781

EPHEMERIS_TYPE = 0
CLASSIFICATION_TYPE = U
NORAD_CAT_ID   = 67894
ELEMENT_SET_NO = 999
REV_AT_EPOCH   = 535
BSTAR          = .17853862E-2
MEAN_MOTION_DOT = .276492E-2
MEAN_MOTION_DDOT = 0

CCSDS_OMM_VERS = 2.0
CREATION_DATE  = 
ORIGINATOR     = 

OBJECT_NAME    = STARLINK-36866
OBJECT_ID      = 2026-035S
CENTER_NAME    = EARTH
REF_FRAME      = TEME
TIME_SYSTEM    = UTC
MEAN_ELEMENT_THEORY = SGP/SGP4

EPOCH          = 2026-03-19T06:00:02.000160
MEAN_MOTION    = 15.75191401
ECCENTRICITY   = .00014854
INCLINATION    = 97.2871
RA_OF_ASC_NODE = 11.1371
ARG_OF_PERICENTER = 106.3962
MEAN_ANOMALY   = 118.5919

EPHEMERIS_TYPE = 0
CLASSIFICATION_TYPE = U
NORAD_CAT_ID   = 67895
ELEMENT_SET_NO = 999
REV_AT_EPOCH   = 529
BSTAR          = .52049797E-4
MEAN_MOTION_DOT = .7641E-4
MEAN_MOTION_DDOT = 0

CCSDS_OMM_VERS = 2.0
CREATION_DATE  = 
ORIGINATOR     = 

OBJECT_NAME    = STARLINK-36877
OBJECT_ID      = 2026-035T
CENTER_NAME    = EARTH
REF_FRAME      = TEME
TIME_SYSTEM    = UTC
MEAN_ELEMENT_THEORY = SGP/SGP4

EPOCH          = 2026-03-19T06:19:26.164128
MEAN_MOTION    = 15.80891621
ECCENTRICITY   = .00005147
INCLINATION    = 97.2895
RA_OF_ASC_NODE = 11.1732
ARG_OF_PERICENTER = 82.8356
MEAN_ANOMALY   = 277.2971

EPHEMERIS_TYPE = 0
CLASSIFICATION_TYPE = U
NORAD_CAT_ID   = 67896
ELEMENT_SET_NO = 999
REV_AT_EPOCH   = 535
BSTAR          = .13349008E-2
MEAN_MOTION_DOT = .264375E-2
MEAN_MOTION_DDOT = 0

CCSDS_OMM_VERS = 2.0
CREATION_DATE  = 
ORIGINATOR     = 

OBJECT_NAME    = STARLINK-36870
OBJECT_ID      = 2026-035U
CENTER_NAME    = EARTH
REF_FRAME      = TEME
TIME_SYSTEM    = UTC
MEAN_ELEMENT_THEORY = SGP/SGP4

EPOCH          = 2026-03-18T18:06:57.482208
MEAN_MOTION    = 15.81047299
ECCENTRICITY   = .0002174
INCLINATION    = 97.2895
RA_OF_ASC_NODE = 10.6385
ARG_OF_PERICENTER = 123.9214
MEAN_ANOMALY   = 236.2262

EPHEMERIS_TYPE = 0
CLASSIFICATION_TYPE = U
NORAD_CAT_ID   = 67897
ELEMENT_SET_NO = 999
REV_AT_EPOCH   = 527
BSTAR          = .24641253E-2
MEAN_MOTION_DOT = .505555E-2
MEAN_MOTION_DDOT = 0

